NORAD_CAT_ID,OBJECT_NAME,OBJECT_TYPE,EPOCH,MEAN_MOTION,ECCENTRICITY,INCLINATION,RA_OF_ASC_NODE,ARG_OF_PERICENTER,MEAN_ANOMALY,BSTAR,MEAN_MOTION_DOT,MEAN_MOTION_DDOT,TLE_LINE0,TLE_LINE1,TLE_LINE2,SEMIMAJOR_AXIS,PERIOD,APOGEE,PERIGEE,DECAYED
50828.0,STARLINK-3290,PAYLOAD,2022-09-12 18:14:14,15.08837987,0.0001663,53.2155,128.0253,50.4027,309.7112,9.0218e-05,1.148e-05,0.0,0 STARLINK-3290,1 50828U 22001AB  22255.75989015  .00001148  00000-0  90218-4 0  9996,2 50828  53.2155 128.0253 0001663  50.4027 309.7112 15.08837987 39361,6917.887,95.438,540.9019999999998,538.601,0.0
50828.0,STARLINK-3290,PAYLOAD,2022-09-12 19:49:37,15.08839005,0.0001685,53.2155,127.7279,50.3931,309.721,0.00010055,1.313e-05,0.0,0 STARLINK-3290,1 50828U 22001AB  22255.82612980  .00001313  00000-0  10055-3 0  9992,2 50828  53.2155 127.7279 0001685  50.3931 309.7210 15.08839005 37946,6917.8830000000025,95.438,540.914,538.5830000000002,0.0
50828.0,STARLINK-3290,PAYLOAD,2022-09-13 03:46:32,15.08846625,0.0001706999999999,53.2155,126.241,50.8795,309.2349,0.00017251,2.459e-05,0.0,0 STARLINK-3290,1 50828U 22001AB  22256.15732579  .00002459  00000-0  17251-3 0  9993,2 50828  53.2155 126.2410 0001707  50.8795 309.2349 15.08846625 37994,6917.86,95.437,540.906,538.544,0.0
50828.0,STARLINK-3290,PAYLOAD,2022-09-13 18:05:01,15.08840164,0.0001709,53.2155,123.5644,51.78100000000001,308.3336,8.769e-05,1.108e-05,0.0,0 STARLINK-3290,1 50828U 22001AB  22256.75348888  .00001108  00000-0  87690-4 0  9990,2 50828  53.2155 123.5644 0001709  51.7810 308.3336 15.08840164 39511,6917.88,95.438,540.927,538.563,0.0
50828.0,STARLINK-3290,PAYLOAD,2022-09-13 21:15:47,15.08838425,0.0001867,53.2158,122.9712,37.444,322.6681,7.1214e-05,8.45e-06,0.0,0 STARLINK-3290,1 50828U 22001AB  22256.88597066  .00000845  00000-0  71214-4 0  9990,2 50828  53.2158 122.9712 0001867  37.4440 322.6681 15.08838425 38101,6917.885,95.438,541.0419999999998,538.4590000000002,0.0
50828.0,STARLINK-3290,PAYLOAD,2022-09-14 03:37:20,15.08831814,0.000179,53.2154,121.7803,52.1966,307.9188,-2.7773000000000013e-05,-7.299999999999999e-06,0.0,0 STARLINK-3290,1 50828U 22001AB  22257.15093484 -.00000730  00000-0 -27773-4 0  9992,2 50828  53.2154 121.7803 0001790  52.1966 307.9188 15.08831814 39572,6917.905,95.438,541.009,538.5319999999998,0.0
50828.0,STARLINK-3290,PAYLOAD,2022-09-14 08:23:30,15.08834376,0.0001817,53.2156,120.8882,52.8058,307.31,2.2691e-07,-2.85e-06,0.0,0 STARLINK-3290,1 50828U 22001AB  22257.34965490 -.00000285  00000-0  22691-6 0  9998,2 50828  53.2156 120.8882 0001817  52.8058 307.3100 15.08834376 38179,6917.898,95.438,541.02,538.506,0.0
50828.0,STARLINK-3290,PAYLOAD,2022-09-14 19:31:12,15.0884009,0.0001816,53.215,118.8064,54.429,305.6871,0.00017592,2.513e-05,0.0,0 STARLINK-3290,1 50828U 22001AB  22257.81333434  .00002513  00000-0  17592-3 0  9993,2 50828  53.2150 118.8064 0001816  54.4290 305.6871 15.08840090 38241,6917.88,95.438,541.001,538.489,0.0
50828.0,STARLINK-3290,PAYLOAD,2022-09-15 01:52:44,15.08847359,0.0001821999999999,53.2147,117.6169,53.9209,306.1952,0.00064863,0.00010052,0.0,0 STARLINK-3290,1 50828U 22001AB  22258.07829479  .00010052  00000-0  64863-3 0  9991,2 50828  53.2147 117.6169 0001822  53.9209 306.1952 15.08847359 39715,6917.858,95.437,540.9830000000002,538.462,0.0
50828.0,STARLINK-3290,PAYLOAD,2022-09-15 08:14:17,15.08840079,0.0002053,53.2154,116.4266,55.1596,304.9589,0.00043877,6.702e-05,0.0,0 STARLINK-3290,1 50828U 22001AB  22258.34325773  .00006702  00000-0  43877-3 0  9998,2 50828  53.2154 116.4266 0002053  55.1596 304.9589 15.08840079 38328,6917.88,95.438,541.165,538.325,0.0
50828.0,STARLINK-3290,PAYLOAD,2022-09-15 20:57:22,15.08841024,0.0001682,53.2151,114.0488,56.1349,303.9803,0.00028305,4.22e-05,0.0,0 STARLINK-3290,1 50828U 22001AB  22258.87317758  .00004220  00000-0  28305-3 0  9992,2 50828  53.2151 114.0488 0001682  56.1349 303.9803 15.08841024 38407,6917.877,95.437,540.906,538.5790000000002,0.0
50828.0,STARLINK-3290,PAYLOAD,2022-09-15 22:32:45,15.08841163,0.0001847,53.2151,113.7508,56.0498,304.067,0.00030283,4.535e-05,0.0,0 STARLINK-3290,1 50828U 22001AB  22258.93941856  .00004535  00000-0  30283-3 0  9998,2 50828  53.2151 113.7508 0001847  56.0498 304.0670 15.08841163 39840,6917.877,95.437,541.02,538.464,0.0
50828.0,STARLINK-3290,PAYLOAD,2022-09-16 01:43:31,15.08845444,0.0001841999999999,53.2153,113.1564,55.272,304.8446,0.00032523,4.893e-05,0.0,0 STARLINK-3290,1 50828U 22001AB  22259.07189718  .00004893  00000-0  32523-3 0  9991,2 50828  53.2153 113.1564 0001842  55.2720 304.8446 15.08845444 38431,6917.864000000001,95.437,541.003,538.4540000000002,0.0
50828.0,STARLINK-3290,PAYLOAD,2022-09-16 20:48:09,15.08840907,0.0001833,53.2154,109.5876,55.4357,304.6808,0.00011471,1.538e-05,0.0,0 STARLINK-3290,1 50828U 22001AB  22259.86677834  .00001538  00000-0  11471-3 0  9991,2 50828  53.2154 109.5876 0001833  55.4357 304.6808 15.08840907 38557,6917.878000000002,95.437,541.011,538.475,0.0
50828.0,STARLINK-3290,PAYLOAD,2022-09-17 01:34:18,15.08841928,0.0001851999999999,53.2157,108.6959,54.3392,305.7773,0.00011915,1.609e-05,0.0,0 STARLINK-3290,1 50828U 22001AB  22260.06549764  .00001609  00000-0  11915-3 0  9997,2 50828  53.2157 108.6959 0001852  54.3392 305.7773 15.08841928 38580,6917.874,95.437,541.021,538.4580000000002,0.0
50828.0,STARLINK-3290,PAYLOAD,2022-09-17 20:38:56,15.08834229,0.0001746,53.2156,105.1271,52.4744,307.6406,-7.896e-06,-4.14e-06,0.0,0 STARLINK-3290,1 50828U 22001AB  22260.86038036 -.00000414  00000-0 -78960-5 0  9990,2 50828  53.2156 105.1271 0001746  52.4744 307.6406 15.08834229 38704,6917.898,95.438,540.971,538.555,0.0
50828.0,STARLINK-3290,PAYLOAD,2022-09-17 23:49:43,15.08833849,0.0001729,53.2163,104.5325,47.5453,312.5686,1.56e-05,-4e-07,0.0,0 STARLINK-3290,1 50828U 22001AB  22260.99286367 -.00000040  00000-0  15600-4 0  9991,2 50828  53.2163 104.5325 0001729  47.5453 312.5686 15.08833849 38722,6917.899,95.438,540.96,538.568,0.0
50828.0,STARLINK-3290,PAYLOAD,2022-09-18 20:29:43,15.08841965,0.0001665999999999,53.2162,100.6666,49.8367,310.2771,0.00011054,1.472e-05,0.0,0 STARLINK-3290,1 50828U 22001AB  22261.85397713  .00001472  00000-0  11054-3 0  9992,2 50828  53.2162 100.6666 0001666  49.8367 310.2771 15.08841965 38857,6917.874,95.437,540.8919999999998,538.587,0.0
50828.0,STARLINK-3290,PAYLOAD,2022-09-19 06:02:02,15.08847707,0.0001679,53.2163,98.8824,49.9541,310.1598,0.0001428,1.986e-05,0.0,0 STARLINK-3290,1 50828U 22001AB  22262.25141236  .00001986  00000-0  14280-3 0  9998,2 50828  53.2163  98.8824 0001679  49.9541 310.1598 15.08847707 38914,6917.857,95.437,540.883,538.56,0.0
50828.0,STARLINK-3290,PAYLOAD,2022-09-19 20:20:31,15.08832382,0.0001738,53.2166,96.2065,51.9577,308.1572,0.00010585,1.397e-05,0.0,0 STARLINK-3290,1 50828U 22001AB  22262.84758382  .00001397  00000-0  10585-3 0  9999,2 50828  53.2166  96.2065 0001738  51.9577 308.1572 15.08832382 40436,6917.904,95.438,540.971,538.566,0.0
50828.0,STARLINK-3290,PAYLOAD,2022-09-20 01:06:40,15.08837003,0.0001759,53.2165,95.3143,51.5255,308.5895,0.0001363,1.882e-05,0.0,0 STARLINK-3290,1 50828U 22001AB  22263.04630067  .00001882  00000-0  13630-3 0  9994,2 50828  53.2165  95.3143 0001759  51.5255 308.5895 15.08837003 39035,6917.89,95.438,540.971,538.538,0.0
50828.0,STARLINK-3290,PAYLOAD,2022-09-20 15:25:08,15.08837839,0.0002008,53.2151,92.6386,49.3029,310.8137,-1.7715e-05,-5.700000000000001e-06,0.0,0 STARLINK-3290,1 50828U 22001AB  22263.64246002 -.00000570  00000-0 -17715-4 0  9996,2 50828  53.2151  92.6386 0002008  49.3029 310.8137 15.08837839 39123,6917.887,95.438,541.141,538.363,0.0
50828.0,STARLINK-3290,PAYLOAD,2022-09-21 15:15:55,15.08838202,0.0001789,53.2163,88.1768,53.2493,306.8663,8.603e-05,1.081e-05,0.0,0 STARLINK-3290,1 50828U 22001AB  22264.63606249  .00001081  00000-0  86030-4 0  9991,2 50828  53.2163  88.1768 0001789  53.2493 306.8663 15.08838202 39274,6917.886,95.438,540.988,538.513,0.0
50828.0,STARLINK-3290,PAYLOAD,2022-09-22 05:34:23,15.08844414,0.0001747,53.2168,85.5006,52.4832,307.6319,0.00014005,1.942e-05,0.0,0 STARLINK-3290,1 50828U 22001AB  22265.23221722  .00001942  00000-0  14005-3 0  9995,2 50828  53.2168  85.5006 0001747  52.4832 307.6319 15.08844414 40795,6917.8669999999975,95.437,540.94,538.523,0.0
50828.0,STARLINK-3290,PAYLOAD,2022-09-22 18:17:29,15.08833722,0.0001883,53.2161,83.1216,56.4197,303.6975,7.3391e-05,8.8e-06,0.0,0 STARLINK-3290,1 50828U 22001AB  22265.76214700  .00000880  00000-0  73391-4 0  9995,2 50828  53.2161  83.1216 0001883  56.4197 303.6975 15.08833722 39448,6917.9,95.438,541.067,538.462,0.0
50828.0,STARLINK-3290,PAYLOAD,2022-09-22 21:28:15,15.08834251,0.0001798,53.217,82.5273,54.0855,306.0304,5.972e-05,6.62e-06,0.0,0 STARLINK-3290,1 50828U 22001AB  22265.89462755  .00000662  00000-0  59720-4 0  9992,2 50828  53.2170  82.5273 0001798  54.0855 306.0304 15.08834251 39467,6917.898,95.438,541.007,538.519,0.0
50828.0,STARLINK-3290,PAYLOAD,2022-09-23 18:08:15,15.0884458,0.0001818,53.2174,78.6616,54.1342,305.9819,0.00010197,1.335e-05,0.0,0 STARLINK-3290,1 50828U 22001AB  22266.75574042  .00001335  00000-0  10197-3 0  9993,2 50828  53.2174  78.6616 0001818  54.1342 305.9819 15.08844580 39592,6917.866,95.437,540.989,538.474,0.0
50828.0,STARLINK-3290,PAYLOAD,2022-09-23 21:19:02,15.08847595,0.0001821999999999,53.2174,78.0669,52.8208,307.295,9.0941e-05,1.16e-05,0.0,0 STARLINK-3290,1 50828U 22001AB  22266.88821834  .00001160  00000-0  90941-4 0  9993,2 50828  53.2174  78.0669 0001822  52.8208 307.2950 15.08847595 39618,6917.857,95.437,540.9830000000002,538.462,0.0
50828.0,STARLINK-3290,PAYLOAD,2022-09-24 17:59:03,15.0883734,0.0001829,53.2171,74.20100000000002,51.8985,308.2172,7.455600000000001e-05,8.99e-06,0.0,0 STARLINK-3290,1 50828U 22001AB  22267.74934402  .00000899  00000-0  74556-4 0  9997,2 50828  53.2171  74.2010 0001829  51.8985 308.2172 15.08837340 39749,6917.889,95.438,541.019,538.488,0.0
